Skip Page Navigation
NASA Logo - Jet Propulsion Laboratory				+ View the NASA Portal
+ Center for Near-Earth Object Studies			
JPL Home	Earth	Solar System	Stars & Galaxies	Technology

JPL Solar System Dynamics
BODIES		ORBITS		EPHEMERIDES		TOOLS		PHYSICAL DATA		DISCOVERY		FAQ		SITE MAP

IMPORTANT: The SSD Announcement email list is now available. Major changes are coming in the near future, including possible hostname and/or URL changes. To be notified of such changes, subscribe to this email list.

Please visit this page for more details.


Don't show this message again
HORIZONS Web-Interface
This tool provides a web-based limited interface to JPL's HORIZONS system which can be used to generate ephemerides for solar-system bodies. Full access to HORIZONS features is available via the primary telnet interface. HORIZONS system news shows recent changes and improvements. A web-interface tutorial is available to assist new users.
Current Settings
Ephemeris Type [change] : 	ELEMENTS
Target Body [change] : 	Jupiter Barycenter [5]
Center [change] : 	Solar System Barycenter (SSB) [500@0]
Time Span [change] : 	Start=JD 2458850.0, Stop=JD 2464329.0, Intervals=500
Table Settings [change] : 	CSV format=YES
Display/Output [change] : 	default (formatted HTML)
Object Data Page
 Revised: Jul 13, 2013          Jupiter Barycenter                            5
 
 Dynamical point:
 ---------------
 The location of the center-of-mass of the Jupiter system. The point about 
 which Jupiter and its satellites revolve. See 599 for Jupiter center.
Results
*******************************************************************************
Ephemeris / WWW_USER Fri May 15 19:41:51 2020 Pasadena, USA      / Horizons    
*******************************************************************************
Target body name: Jupiter Barycenter (5)          {source: DE431mx}
Center body name: Solar System Barycenter (0)     {source: DE431mx}
Center-site name: BODY CENTER
*******************************************************************************
Start time      : A.D. 2020-Jan-01 12:00:00.0000 TDB
Stop  time      : A.D. 2035-Jan-01 12:00:00.0000 TDB
Step-size       : 500 steps
*******************************************************************************
Center geodetic : 0.00000000,0.00000000,0.0000000 {E-lon(deg),Lat(deg),Alt(km)}
Center cylindric: 0.00000000,0.00000000,0.0000000 {E-lon(deg),Dxy(km),Dz(km)}
Center radii    : (undefined)                                                  
Keplerian GM    : 2.9546247911576716E-04 au^3/d^2
Output units    : AU-D, deg, Julian Day Number (Tp)                            
Output type     : GEOMETRIC osculating elements
Output format   : 10
Reference frame : ICRF/J2000.0                                                 
Coordinate systm: Ecliptic and Mean Equinox of Reference Epoch                 
*******************************************************************************
            JDTDB,            Calendar Date (TDB),                     EC,                     QR,                     IN,                     OM,                      W,                     Tp,                      N,                     MA,                     TA,                      A,                     AD,                     PR,
**************************************************************************************************************************************************************************************************************************************************************************************************************************************************
$$SOE
2463781.100000000, A.D. 2033-Jul-02 14:24:00.0000,  4.856635190220435E-02,  4.947410232010690E+00,  1.303440286651360E+00,  1.005410264033802E+02,  2.740876959499176E+02,  2.464305510117987E+06,  8.305670090322109E-02,  3.164442256797312E+02,  3.124365560638435E+02,  5.199952978226136E+00,  5.452495724441582E+00,  4.334388388716251E+03,
2463792.058000000, A.D. 2033-Jul-13 13:23:31.2000,  4.855114164072517E-02,  4.947364339203018E+00,  1.303436937211505E+00,  1.005408684421008E+02,  2.741107489291295E+02,  2.464305762446510E+06,  8.305984831995683E-02,  3.173317865915959E+02,  3.133884375934120E+02,  5.199821614936294E+00,  5.452278890669570E+00,  4.334224144176562E+03,
2463803.016000000, A.D. 2033-Jul-24 12:23:02.4000,  4.853532820940600E-02,  4.947320944173831E+00,  1.303433680641535E+00,  1.005407095195545E+02,  2.741333298759582E+02,  2.464306009805289E+06,  8.306301191542657E-02,  3.182198195579452E+02,  3.143419142587763E+02,  5.199689584757046E+00,  5.452058225340261E+00,  4.334059067910350E+03,
2463813.974000000, A.D. 2033-Aug-04 11:22:33.6000,  4.851892274603312E-02,  4.947280016451770E+00,  1.303430516647940E+00,  1.005405497194800E+02,  2.741554155880208E+02,  2.464306251927072E+06,  8.306619099478492E-02,  3.191083476873881E+02,  3.152969927089258E+02,  5.199556916812184E+00,  5.451833817172598E+00,  4.333893196361943E+03,
2463824.932000000, A.D. 2033-Aug-15 10:22:04.8000,  4.850193738964199E-02,  4.947241522659401E+00,  1.303427445891176E+00,  1.005403891767722E+02,  2.741769829283515E+02,  2.464306488545863E+06,  8.306938480523669E-02,  3.199973939861971E+02,  3.162536790455229E+02,  5.199423642636797E+00,  5.451605762614191E+00,  4.333726568988694E+03,
2463835.890000000, A.D. 2033-Aug-26 09:21:36.0000,  4.848438509847260E-02,  4.947205427648688E+00,  1.303424469245450E+00,  1.005402280445824E+02,  2.741980085745271E+02,  2.464306719393956E+06,  8.307259253128517E-02,  3.208869816041012E+02,  3.172119791104971E+02,  5.199289796374678E+00,  5.451374165100667E+00,  4.333559228507571E+03,
2463846.848000000, A.D. 2033-Sep-06 08:21:07.2000,  4.846627914548955E-02,  4.947171694367366E+00,  1.303421587394817E+00,  1.005400664741903E+02,  2.742184693171672E+02,  2.464306944205112E+06,  8.307581336416871E-02,  3.217771335345327E+02,  3.181718982116673E+02,  5.199155411880341E+00,  5.451139129393316E+00,  4.333391217271801E+03,
2463857.806000000, A.D. 2033-Sep-17 07:20:38.4000,  4.844763299663731E-02,  4.947140282795467E+00,  1.303418800953357E+00,  1.005399046213467E+02,  2.742383424930970E+02,  2.464307162719348E+06,  8.307904654460513E-02,  3.226678721981967E+02,  3.191334406872938E+02,  5.199020520935747E+00,  5.450900759076027E+00,  4.333222575041423E+03,
2463868.764000000, A.D. 2033-Sep-28 06:20:09.6000,  4.842846041832897E-02,  4.947111149433086E+00,  1.303416110290371E+00,  1.005397426360511E+02,  2.742576061614795E+02,  2.464307374684700E+06,  8.308229136163699E-02,  3.235592192994309E+02,  3.200966097444429E+02,  5.198885153299067E+00,  5.450659157165050E+00,  4.333053339044390E+03,
2463879.722000000, A.D. 2033-Oct-09 05:19:40.8000,  4.840877562295352E-02,  4.947084247228088E+00,  1.303413515296796E+00,  1.005395806468227E+02,  2.742762391276083E+02,  2.464307579857287E+06,  8.308554713541599E-02,  3.244511958311313E+02,  3.210614074555351E+02,  5.198749337423395E+00,  5.450414427618703E+00,  4.332883544875239E+03,
2463890.680000000, A.D. 2033-Oct-20 04:19:12.0000,  4.838859336264004E-02,  4.947059525738367E+00,  1.303411015275703E+00,  1.005394187501791E+02,  2.742942209047199E+02,  2.464307778000772E+06,  8.308881320085323E-02,  3.253438221273755E+02,  3.220278348120405E+02,  5.198613101139078E+00,  5.450166676539790E+00,  4.332713227348193E+03,
2463901.638000000, A.D. 2033-Oct-31 03:18:43.2000,  4.836792893469018E-02,  4.947036931111167E+00,  1.303408609191740E+00,  1.005392570225250E+02,  2.743115317669193E+02,  2.464307968887089E+06,  8.309208890744489E-02,  3.262371178041577E+02,  3.229958916649961E+02,  5.198476471661130E+00,  5.449916012211093E+00,  4.332542420506469E+03,
2463912.596000000, A.D. 2033-Nov-11 02:18:14.4000,  4.834679834451591E-02,  4.947016405847397E+00,  1.303406296143569E+00,  1.005390955500370E+02,  2.743281528234492E+02,  2.464308152297548E+06,  8.309537360388591E-02,  3.271311016738953E+02,  3.239655766265083E+02,  5.198339476231077E+00,  5.449662546614756E+00,  4.332371158424694E+03,
2463923.554000000, A.D. 2033-Nov-22 01:17:45.6000,  4.832521850425907E-02,  4.946997889382254E+00,  1.303404075176329E+00,  1.005389344165846E+02,  2.743440657999901E+02,  2.464308328020323E+06,  8.309866659744121E-02,  3.280257919698624E+02,  3.249368873066135E+02,  5.198202143811240E+00,  5.449406398240226E+00,  4.332199477326934E+03,
2463934.512000000, A.D. 2033-Dec-03 00:17:16.8000,  4.830320704894760E-02,  4.946981318523602E+00,  1.303401945226494E+00,  1.005387736995033E+02,  2.743592530011150E+02,  2.464308495850074E+06,  8.310196716698953E-02,  3.289212063701488E+02,  3.259098203615102E+02,  5.198064504540193E+00,  5.449147690556783E+00,  4.332027414905795E+03,
2463945.470000000, A.D. 2033-Dec-13 23:16:48.0000,  4.828078235172983E-02,  4.946966627249246E+00,  1.303399905482596E+00,  1.005386134969393E+02,  2.743736974359803E+02,  2.464308655589632E+06,  8.310527456614650E-02,  3.298173618552090E+02,  3.268843713472419E+02,  5.197926589602093E+00,  5.448886551954940E+00,  4.331855010158988E+03,
2463956.428000000, A.D. 2033-Dec-24 22:16:19.2000,  4.825796368332069E-02,  4.946953746955185E+00,  1.303397955386080E+00,  1.005384539314614E+02,  2.743873827311870E+02,  2.464308807049079E+06,  8.310858799613448E-02,  3.307142747916263E+02,  3.278605348102990E+02,  5.197788432357477E+00,  5.448623117759769E+00,  4.331682304802774E+03,
2463967.386000000, A.D. 2034-Jan-04 21:15:50.4000,  4.823477130953484E-02,  4.946942607039190E+00,  1.303396094422488E+00,  1.005382951364407E+02,  2.744002929235886E+02,  2.464308950043375E+06,  8.311190657830896E-02,  3.316119611365141E+02,  3.288383045159129E+02,  5.197650069487930E+00,  5.448357531936668E+00,  4.331509344702663E+03,
